NORAD_CAT_ID,OBJECT_NAME,OBJECT_TYPE,EPOCH,MEAN_MOTION,ECCENTRICITY,INCLINATION,RA_OF_ASC_NODE,ARG_OF_PERICENTER,MEAN_ANOMALY,BSTAR,MEAN_MOTION_DOT,MEAN_MOTION_DDOT,TLE_LINE0,TLE_LINE1,TLE_LINE2,SEMIMAJOR_AXIS,PERIOD,APOGEE,PERIGEE,DECAYED
52361.0,STARLINK-3728,PAYLOAD,2024-08-06 08:11:24,15.08819024,0.000189,53.2174,284.4078,121.357,238.7607,-0.00039275,-6.53e-05,0.0,0 STARLINK-3728,1 52361U 22045AG  24219.34125878 -.00006530  00000-0 -39275-3 0  9991,2 52361  53.2174 284.4078 0001890 121.3570 238.7607 15.08819024128171,6917.945,95.439,541.117,538.502,0.0
52361.0,STARLINK-3728,PAYLOAD,2024-08-07 12:48:21,15.08862939,0.0001358,53.2156,279.0577,101.3812,258.7333,0.0012167,0.00019141,0.0,0 STARLINK-3728,1 52361U 22045AG  24220.53358157  .00019141  00000-0  12167-2 0  9992,2 52361  53.2156 279.0577 0001358 101.3812 258.7333 15.08862939128352,6917.81,95.436,540.615,538.736,0.0
52361.0,STARLINK-3728,PAYLOAD,2024-08-08 11:03:44,15.08864736,0.0001359,53.2147,274.8948,108.8279,251.2861,0.0014778,0.00023325,0.0,0 STARLINK-3728,1 52361U 22045AG  24221.46093715  .00023325  00000-0  14778-2 0  9990,2 52361  53.2147 274.8948 0001359 108.8279 251.2861 15.08864736128493,6917.805,95.436,540.61,538.73,0.0
52361.0,STARLINK-3728,PAYLOAD,2024-08-09 12:29:55,15.08842748,0.0001752,53.2158,270.1323,69.9603,290.1578,0.00018355,2.635e-05,0.0,0 STARLINK-3728,1 52361U 22045AG  24222.52077989  .00002635  00000-0  18355-3 0  9990,2 52361  53.2158 270.1323 0001752  69.9603 290.1578 15.08842748128650,6917.872,95.437,540.949,538.525,0.0
52361.0,STARLINK-3728,PAYLOAD,2024-08-10 12:20:42,15.08843801,0.0001911,53.2166,265.6663,70.0276,290.0922,0.00020592,2.991e-05,0.0,0 STARLINK-3728,1 52361U 22045AG  24223.51437984  .00002991  00000-0  20592-3 0  9996,2 52361  53.2166 265.6663 0001911  70.0276 290.0922 15.08843801128801,6917.869,95.437,541.056,538.412,0.0
52361.0,STARLINK-3728,PAYLOAD,2024-08-11 02:39:10,15.08826983,0.0001432,53.2148,262.9922,115.5882,244.5259,-0.00023322,-3.996e-05,0.0,0 STARLINK-3728,1 52361U 22045AG  24224.11054389 -.00003996  00000-0 -23322-3 0  9999,2 52361  53.2148 262.9922 0001432 115.5882 244.5259 15.08826983128893,6917.92,95.438,540.776,538.795,0.0
52361.0,STARLINK-3728,PAYLOAD,2024-08-11 20:08:25,15.08836119,0.000155,53.2156,259.7255,105.7502,254.3661,8.3609e-05,1.043e-05,0.0,0 STARLINK-3728,1 52361U 22045AG  24224.83918606  .00001043  00000-0  83609-4 0  9993,2 52361  53.2156 259.7255 0001550 105.7502 254.3661 15.08836119129008,6917.892,95.438,540.83,538.685,0.0
52361.0,STARLINK-3728,PAYLOAD,2024-08-12 08:51:30,15.08858525,0.0001433,53.2163,257.3477,91.1548,268.9608,0.00085145,0.00013296,0.0,0 STARLINK-3728,1 52361U 22045AG  24225.36910199  .00013296  00000-0  85145-3 0  9990,2 52361  53.2163 257.3477 0001433  91.1548 268.9608 15.08858525129089,6917.824,95.436,540.68,538.697,0.0
52361.0,STARLINK-3728,PAYLOAD,2024-08-12 13:37:39,15.08898759,0.0001562,53.2159,256.456,85.1308,274.9862,0.0022523,0.00035798,0.0,0 STARLINK-3728,1 52361U 22045AG  24225.56781390  .00035798  00000-0  22523-2 0  9992,2 52361  53.2159 256.4560 0001562  85.1308 274.9862 15.08898759129113,6917.701,95.434,540.646,538.485,0.0
52361.0,STARLINK-3728,PAYLOAD,2024-08-13 05:31:30,15.08839156,0.0001425,53.215,253.4815,104.9727,255.1423,-6.6666e-05,-1.349e-05,0.0,0 STARLINK-3728,1 52361U 22045AG  24226.23021569 -.00001349  00000-0 -66666-4 0  9997,2 52361  53.2150 253.4815 0001425 104.9727 255.1423 15.08839156129218,6917.883,95.438,540.734,538.762,0.0
52361.0,STARLINK-3728,PAYLOAD,2024-08-13 08:42:16,15.08842359,0.0001379,53.2153,252.8867,96.8491,263.2658,-0.00023158,-3.972e-05,0.0,0 STARLINK-3728,1 52361U 22045AG  24226.36269507 -.00003972  00000-0 -23158-3 0  9999,2 52361  53.2153 252.8867 0001379  96.8491 263.2658 15.08842359129237,6917.873,95.437,540.692,538.784,0.0
52361.0,STARLINK-3728,PAYLOAD,2024-08-13 18:14:35,15.08832221,0.0001359,53.2157,251.1031,97.6611,262.4535,-0.00010977,-2.034e-05,0.0,0 STARLINK-3728,1 52361U 22045AG  24226.76013838 -.00002034  00000-0 -10977-3 0  9990,2 52361  53.2157 251.1031 0001359  97.6611 262.4535 15.08832221129295,6917.904,95.438,540.709,538.829,0.0
52361.0,STARLINK-3728,PAYLOAD,2024-08-14 05:22:18,15.08818777,0.0001534,53.216,249.0223,99.8693,260.2473,-0.00038001,-6.327e-05,0.0,0 STARLINK-3728,1 52361U 22045AG  24227.22382630 -.00006327  00000-0 -38001-3 0  9998,2 52361  53.2160 249.0223 0001534  99.8693 260.2473 15.08818777129362,6917.945,95.439,540.871,538.749,0.0
52361.0,STARLINK-3728,PAYLOAD,2024-08-14 08:33:04,15.08820511,0.0001505,53.2157,248.4291,100.1553,259.9609,-0.00037273,-6.212e-05,0.0,0 STARLINK-3728,1 52361U 22045AG  24227.35630729 -.00006212  00000-0 -37273-3 0  9990,2 52361  53.2157 248.4291 0001505 100.1553 259.9609 15.08820511129382,6917.94,95.439,540.846,538.764,0.0
52361.0,STARLINK-3728,PAYLOAD,2024-08-14 18:05:23,15.08822975,0.0001481,53.216,246.6448,100.7368,259.3791,-0.0002642,-4.488e-05,0.0,0 STARLINK-3728,1 52361U 22045AG  24227.75374993 -.00004488  00000-0 -26420-3 0  9997,2 52361  53.2160 246.6448 0001481 100.7368 259.3791 15.08822975129442,6917.932,95.439,540.822,538.773,0.0
52361.0,STARLINK-3728,PAYLOAD,2024-08-15 08:23:52,15.08830449,0.0001513,53.2154,243.9687,103.7373,256.3787,7.5958e-05,9.21e-06,0.0,0 STARLINK-3728,1 52361U 22045AG  24228.34991247  .00000921  00000-0  75958-4 0  9997,2 52361  53.2154 243.9687 0001513 103.7373 256.3787 15.08830449129532,6917.91,95.438,540.821,538.728,0.0
52361.0,STARLINK-3728,PAYLOAD,2024-08-15 17:56:11,15.08832415,0.0001507,53.2155,242.1846,102.6987,257.4173,9.8742e-05,1.284e-05,0.0,0 STARLINK-3728,1 52361U 22045AG  24228.74735362  .00001284  00000-0  98742-4 0  9994,2 52361  53.2155 242.1846 0001507 102.6987 257.4173 15.08832415129595,6917.904,95.438,540.811,538.726,0.0
52361.0,STARLINK-3728,PAYLOAD,2024-08-16 08:14:39,15.08840656,0.0001392,53.2143,239.5065,94.5987,265.5164,0.00017137,2.441e-05,0.0,0 STARLINK-3728,1 52361U 22045AG  24229.34351392  .00002441  00000-0  17137-3 0  9992,2 52361  53.2143 239.5065 0001392  94.5987 265.5164 15.08840656129682,6917.878,95.438,540.706,538.78,0.0
52361.0,STARLINK-3728,PAYLOAD,2024-08-17 04:54:40,15.08831859,0.000144,53.214,235.6416,94.5526,265.563,-6.8691e-05,-1.381e-05,0.0,0 STARLINK-3728,1 52361U 22045AG  24230.20463816 -.00001381  00000-0 -68691-4 0  9990,2 52361  53.2140 235.6416 0001440  94.5526 265.5630 15.08831859129817,6917.905,95.438,540.766,538.774,0.0
52361.0,STARLINK-3728,PAYLOAD,2024-08-17 08:05:27,15.08833112,0.0001409,53.2139,235.0462,90.5927,269.5227,-4.5476e-05,-1.011e-05,0.0,0 STARLINK-3728,1 52361U 22045AG  24230.33711840 -.00001011  00000-0 -45476-4 0  9993,2 52361  53.2139 235.0462 0001409  90.5927 269.5227 15.08833112129838,6917.901,95.438,540.741,538.792,0.0
52361.0,STARLINK-3728,PAYLOAD,2024-08-18 04:45:27,15.08846854,0.0001477,53.2139,231.1795,85.1563,274.9597,0.00026795,3.98e-05,0.0,0 STARLINK-3728,1 52361U 22045AG  24231.19823500  .00003980  00000-0  26795-3 0  9992,2 52361  53.2139 231.1795 0001477  85.1563 274.9597 15.08846854129966,6917.859,95.437,540.746,538.703,0.0
52361.0,STARLINK-3728,PAYLOAD,2024-08-18 06:20:50,15.08849162,0.0001637,53.2142,230.8829,74.6546,285.4627,0.00032201,4.842e-05,0.0,0 STARLINK-3728,1 52361U 22045AG  24231.26447528  .00004842  00000-0  32201-3 0  9999,2 52361  53.2142 230.8829 0001637  74.6546 285.4627 15.08849162129973,6917.852,95.437,540.85,538.585,0.0
52361.0,STARLINK-3728,PAYLOAD,2024-08-19 04:36:14,15.0884516,0.0001517,53.2136,226.7194,81.7322,278.3842,3.7079e-05,3.02e-06,0.0,0 STARLINK-3728,1 52361U 22045AG  24232.19183162  .00000302  00000-0  37079-4 0  9999,2 52361  53.2136 226.7194 0001517  81.7322 278.3842 15.08845160130115,6917.865,95.437,540.779,538.68,0.0
52361.0,STARLINK-3728,PAYLOAD,2024-08-19 10:57:46,15.0886237,0.0001622,53.2148,225.5269,101.8645,258.2529,0.00040704,6.2e-05,0.0,0 STARLINK-3728,1 52361U 22045AG  24232.45678390  .00006200  00000-0  40704-3 0  9991,2 52361  53.2148 225.5269 0001622 101.8645 258.2529 15.08862370130152,6917.812,95.436,540.799,538.555,0.0
52361.0,STARLINK-3728,PAYLOAD,2024-08-20 06:02:20,15.08877507,0.0001987,53.2133,221.9599,100.2075,259.9141,-0.00029526,-4.989e-05,0.0,0 STARLINK-3728,1 52361U 22045AG  24233.25162711 -.00004989  00000-0 -29526-3 0  9998,2 52361  53.2133 221.9599 0001987 100.2075 259.9141 15.08877507130275,6917.766,95.435,541.005,538.256,0.0
52361.0,STARLINK-3728,PAYLOAD,2024-08-20 09:13:07,15.08848337,0.0001611,53.2138,221.3658,95.665,264.4526,-0.0011727,-0.00018907,0.0,0 STARLINK-3728,1 52361U 22045AG  24233.38411169 -.00018907  00000-0 -11727-2 0  9994,2 52361  53.2138 221.3658 0001611  95.6650 264.4526 15.08848337130299,6917.855,95.437,540.834,538.605,0.0
52361.0,STARLINK-3728,PAYLOAD,2024-08-21 04:17:45,15.08824486,0.0001453,53.2156,217.7961,94.2073,265.9085,-0.0010961,-0.00017683,0.0,0 STARLINK-3728,1 52361U 22045AG  24234.17899705 -.00017683  00000-0 -10961-2 0  9997,2 52361  53.2156 217.7961 0001453  94.2073 265.9085 15.08824486130412,6917.928,95.439,540.798,538.788,0.0
52361.0,STARLINK-3728,PAYLOAD,2024-08-21 23:22:24,15.08807453,0.0001448,53.2152,214.2275,93.8519,266.2639,0.00013972,1.934e-05,0.0,0 STARLINK-3728,1 52361U 22045AG  24234.97389866  .00001934  00000-0  13972-3 0  9993,2 52361  53.2152 214.2275 0001448  93.8519 266.2639 15.08807453130539,6917.98,95.44,540.847,538.843,0.0
